YAOGAN-36 04C           
1 54750U 22171E   26068.78871400  .00016196  00000+0  54592-3 0  9991
2 54750  34.9797  96.6578 0006685 275.3761  84.6192 15.29852307180246
STARLINK-35630          
1 66131U 25237T   26068.31985989  .00031796  00000+0  10812-2 0  9999
2 66131  53.1613  41.3639 0001587  83.8420 276.2762 15.30196359 22558
